start=new Date('2022-06-05T00:00:00.000Z').valueOf();
sats=[{"SEMIMAJOR_AXIS":"6925.324","CENTER_NAME":"EARTH","DECAY_DATE":null,"EPOCH":"2022-06-04T20:50:20.325984","TLE_LINE1":"1 48385U 21038AJ  22155.86829081  .00003386  00000-0  24606-3 0  9990","MEAN_ELEMENT_THEORY":"SGP4","ECCENTRICITY":"0.00018190","ARG_OF_PERICENTER":"59.8635","INCLINATION":"53.0558","LAUNCH_DATE":"2021-05-04","BSTAR":"0.00024606000000","PERIAPSIS":"545.929","OBJECT_ID":"2021-038AJ","MEAN_ANOMALY":"300.2534","CLASSIFICATION_TYPE":"U","APOAPSIS":"548.449","REF_FRAME":"TEME","GP_ID":"205386150","EPHEMERIS_TYPE":"0","MEAN_MOTION_DOT":"0.00003386","TIME_SYSTEM":"UTC","NORAD_CAT_ID":"48385","REV_AT_EPOCH":"6132","ELEMENT_SET_NO":"999","OBJECT_NAME":"STARLINK-2598","PERIOD":"95.592","MEAN_MOTION_DDOT":"0.0000000000000","MEAN_MOTION":"15.06408024","FILE":"3481313","COUNTRY_CODE":"US","OBJECT_TYPE":"PAYLOAD","TLE_LINE2":"2 48385  53.0558  38.9424 0001819  59.8635 300.2534 15.06408024 61320","RA_OF_ASC_NODE":"38.9424","SITE":"AFETR","RCS_SIZE":"LARGE"},{"BSTAR":"0.00470600000000","LAUNCH_DATE":"2021-05-04","PERIAPSIS":"546.487","MEAN_ELEMENT_THEORY":"SGP4","ARG_OF_PERICENTER":"55.3612","INCLINATION":"53.0555","ECCENTRICITY":"0.00016760","TLE_LINE1":"1 48386U 21038AK  22155.92225921  .00070246  00000-0  47060-2 0  9998","CENTER_NAME":"EARTH","SEMIMAJOR_AXIS":"6925.783","EPOCH":"2022-06-04T22:08:03.195744","DECAY_DATE":null,"REF_FRAME":"TEME","GP_ID":"205385897","CLASSIFICATION_TYPE":"U","MEAN_ANOMALY":"304.7535","APOAPSIS":"548.809","OBJECT_ID":"2021-038AK","PERIOD":"95.601","MEAN_MOTION_DDOT":"0.0000000000000","MEAN_MOTION":"15.06258231","OBJECT_NAME":"STARLINK-2606","ELEMENT_SET_NO":"999","REV_AT_EPOCH":"6017","TIME_SYSTEM":"UTC","NORAD_CAT_ID":"48386","MEAN_MOTION_DOT":"0.00070246","EPHEMERIS_TYPE":"0","RCS_SIZE":"LARGE","SITE":"AFETR","RA_OF_ASC_NODE":"33.7138","TLE_LINE2":"2 48386  53.0555  33.7138 0001676  55.3612 304.7535 15.06258231 60175","OBJECT_TYPE":"PAYLOAD","FILE":"3481313","COUNTRY_CODE":"US"},{"SITE":"AFETR","RCS_SIZE":"LARGE","OBJECT_TYPE":"PAYLOAD","TLE_LINE2":"2 48387  53.0570  34.1601 0001712  64.7013 295.4154 15.06396052 60169","FILE":"3481313","COUNTRY_CODE":"US","RA_OF_ASC_NODE":"34.1601","ELEMENT_SET_NO":"999","REV_AT_EPOCH":"6016","MEAN_MOTION_DDOT":"0.0000000000000","PERIOD":"95.592","MEAN_MOTION":"15.06396052","OBJECT_NAME":"STARLINK-2600","MEAN_MOTION_DOT":"-0.00000970","EPHEMERIS_TYPE":"0","TIME_SYSTEM":"UTC","NORAD_CAT_ID":"48387","REF_FRAME":"TEME","GP_ID":"205384652","OBJECT_ID":"2021-038AL","CLASSIFICATION_TYPE":"U","MEAN_ANOMALY":"295.4154","APOAPSIS":"548.411","MEAN_ELEMENT_THEORY":"SGP4","ARG_OF_PERICENTER":"64.7013","INCLINATION":"53.0570","ECCENTRICITY":"0.00017120","BSTAR":"-0.00004625900000","LAUNCH_DATE":"2021-05-04","PERIAPSIS":"546.040","CENTER_NAME":"EARTH","SEMIMAJOR_AXIS":"6925.361","EPOCH":"2022-06-04T19:43:18.126048","DECAY_DATE":null,"TLE_LINE1":"1 48387U 21038AL  22155.82173757 -.00000970  00000-0 -46259-4 0  9997"},{"CENTER_NAME":"EARTH","SEMIMAJOR_AXIS":"6925.354","EPOCH":"2022-06-04T17:58:30.086976","DECAY_DATE":null,"TLE_LINE1":"1 48388U 21038AM  22155.74895934 -.00000937  00000-0 -44014-4 0  9997","MEAN_ELEMENT_THEORY":"SGP4","ARG_OF_PERICENTER":"69.0220","INCLINATION":"53.0575","ECCENTRICITY":"0.00015040","BSTAR":"-0.00004401400000","LAUNCH_DATE":"2021-05-04","PERIAPSIS":"546.177","OBJECT_ID":"2021-038AM","CLASSIFICATION_TYPE":"U","MEAN_ANOMALY":"291.0930","APOAPSIS":"548.260","REF_FRAME":"TEME","GP_ID":"205385402","MEAN_MOTION_DOT":"-0.00000937","EPHEMERIS_TYPE":"0","TIME_SYSTEM":"UTC","NORAD_CAT_ID":"48388","ELEMENT_SET_NO":"999","REV_AT_EPOCH":"6015","PERIOD":"95.592","MEAN_MOTION_DDOT":"0.0000000000000","OBJECT_NAME":"STARLINK-2594","MEAN_MOTION":"15.06398381","TLE_LINE2":"2 48388  53.0575  34.4850 0001504  69.0220 291.0930 15.06398381 60151","OBJECT_TYPE":"PAYLOAD","COUNTRY_CODE":"US","FILE":"3481313","RA_OF_ASC_NODE":"34.4850","SITE":"AFETR","RCS_SIZE":"LARGE"},{"ARG_OF_PERICENTER":"60.2740","INCLINATION":"53.0552","ECCENTRICITY":"0.00016340","MEAN_ELEMENT_THEORY":"SGP4","PERIAPSIS":"546.058","BSTAR":"0.00018586000000","LAUNCH_DATE":"2021-05-04","EPOCH":"2022-06-04T22:25:50.520000","DECAY_DATE":null,"CENTER_NAME":"EARTH","SEMIMAJOR_AXIS":"6925.325","TLE_LINE1":"1 48389U 21038AN  22155.93461250  .00002488  00000-0  18586-3 0  9994","GP_ID":"205385650","REF_FRAME":"TEME","OBJECT_ID":"2021-038AN","APOAPSIS":"548.321","CLASSIFICATION_TYPE":"U","MEAN_ANOMALY":"299.8411","ELEMENT_SET_NO":"999","REV_AT_EPOCH":"6024","PERIOD":"95.592","MEAN_MOTION_DDOT":"0.0000000000000","MEAN_MOTION":"15.06407766","OBJECT_NAME":"STARLINK-1904","MEAN_MOTION_DOT":"0.00002488","EPHEMERIS_TYPE":"0","NORAD_CAT_ID":"48389","TIME_SYSTEM":"UTC","SITE":"AFETR","RCS_SIZE":"LARGE","TLE_LINE2":"2 48389  53.0552  28.6421 0001634  60.2740 299.8411 15.06407766 60248","OBJECT_TYPE":"PAYLOAD","FILE":"3481313","COUNTRY_CODE":"US","RA_OF_ASC_NODE":"28.6421"},{"SITE":"AFETR","RCS_SIZE":"LARGE","TLE_LINE2":"2 48390  53.0559  28.6633 0001785  59.5083 300.6082 15.06396640 61468","OBJECT_TYPE":"PAYLOAD","COUNTRY_CODE":"US","FILE":"3481313","RA_OF_ASC_NODE":"28.6633","ELEMENT_SET_NO":"999","REV_AT_EPOCH":"6146","PERIOD":"95.592","MEAN_MOTION":"15.06396640","MEAN_MOTION_DDOT":"0.0000000000000","OBJECT_NAME":"STARLINK-2586","MEAN_MOTION_DOT":"0.00002565","EPHEMERIS_TYPE":"0","TIME_SYSTEM":"UTC","NORAD_CAT_ID":"48390","REF_FRAME":"TEME","GP_ID":"205386398","OBJECT_ID":"2021-038AP","CLASSIFICATION_TYPE":"U","MEAN_ANOMALY":"300.6082","APOAPSIS":"548.460","MEAN_ELEMENT_THEORY":"SGP4","INCLINATION":"53.0559","ARG_OF_PERICENTER":"59.5083","ECCENTRICITY":"0.00017850","BSTAR":"0.00019107000000","LAUNCH_DATE":"2021-05-04","PERIAPSIS":"545.988","CENTER_NAME":"EARTH","SEMIMAJOR_AXIS":"6925.359","EPOCH":"2022-06-04T22:21:54.001728","DECAY_DATE":null,"TLE_LINE1":"1 48390U 21038AP  22155.93187502  .00002565  00000-0  19107-3 0  9997"},{"RCS_SIZE":"LARGE","SITE":"AFETR","RA_OF_ASC_NODE":"29.5804","TLE_LINE2":"2 48391  53.0556  29.5804 0001783  48.4336 311.6806 15.06393002 61434","OBJECT_TYPE":"PAYLOAD","FILE":"3481313","COUNTRY_CODE":"US","MEAN_MOTION_DDOT":"0.0000000000000","PERIOD":"95.593","MEAN_MOTION":"15.06393002","OBJECT_NAME":"STARLINK-2607","ELEMENT_SET_NO":"999","REV_AT_EPOCH":"6143","NORAD_CAT_ID":"48391","TIME_SYSTEM":"UTC","MEAN_MOTION_DOT":"-0.00000071","EPHEMERIS_TYPE":"0","GP_ID":"205385153","REF_FRAME":"TEME","APOAPSIS":"548.470","CLASSIFICATION_TYPE":"U","MEAN_ANOMALY":"311.6806","OBJECT_ID":"2021-038AQ","PERIAPSIS":"546.000","BSTAR":"0.00001412700000","LAUNCH_DATE":"2021-05-04","ARG_OF_PERICENTER":"48.4336","INCLINATION":"53.0556","ECCENTRICITY":"0.00017830","MEAN_ELEMENT_THEORY":"SGP4","TLE_LINE1":"1 48391U 21038AQ  22155.72915237 -.00000071  00000-0  14127-4 0  9998","EPOCH":"2022-06-04T17:29:58.764768","DECAY_DATE":null,"CENTER_NAME":"EARTH","SEMIMAJOR_AXIS":"6925.370"},{"REF_FRAME":"TEME","GP_ID":"205384903","MEAN_ANOMALY":"299.5984","CLASSIFICATION_TYPE":"U","APOAPSIS":"548.507","OBJECT_ID":"2021-038AR","LAUNCH_DATE":"2021-05-04","BSTAR":"0.00004293900000","PERIAPSIS":"545.937","MEAN_ELEMENT_THEORY":"SGP4","ECCENTRICITY":"0.00018550","INCLINATION":"53.0560","ARG_OF_PERICENTER":"60.5189","TLE_LINE1":"1 48392U 21038AR  22155.92450365  .00000358  00000-0  42939-4 0  9996","SEMIMAJOR_AXIS":"6925.357","CENTER_NAME":"EARTH","DECAY_DATE":null,"EPOCH":"2022-06-04T22:11:17.115360","RCS_SIZE":"LARGE","SITE":"AFETR","RA_OF_ASC_NODE":"28.7042","COUNTRY_CODE":"US","FILE":"3481313","TLE_LINE2":"2 48392  53.0560  28.7042 0001855  60.5189 299.5984 15.06397206 61460","OBJECT_TYPE":"PAYLOAD","MEAN_MOTION":"15.06397206","PERIOD":"95.592","MEAN_MOTION_DDOT":"0.0000000000000","OBJECT_NAME":"STARLINK-2605","REV_AT_EPOCH":"6146","ELEMENT_SET_NO":"999","TIME_SYSTEM":"UTC","NORAD_CAT_ID":"48392","EPHEMERIS_TYPE":"0","MEAN_MOTION_DOT":"0.00000358"},{"RCS_SIZE":"LARGE","SITE":"AFETR","RA_OF_ASC_NODE":"28.7207","FILE":"3481313","COUNTRY_CODE":"US","TLE_LINE2":"2 48393  53.0550  28.7207 0001739  57.9692 302.1466 15.06401633 61469","OBJECT_TYPE":"PAYLOAD","OBJECT_NAME":"STARLINK-2602","PERIOD":"95.592","MEAN_MOTION_DDOT":"0.0000000000000","MEAN_MOTION":"15.06401633","REV_AT_EPOCH":"6146","ELEMENT_SET_NO":"999","TIME_SYSTEM":"UTC","NORAD_CAT_ID":"48393","EPHEMERIS_TYPE":"0","MEAN_MOTION_DOT":"0.00000300","REF_FRAME":"TEME","GP_ID":"205386151","MEAN_ANOMALY":"302.1466","CLASSIFICATION_TYPE":"U","APOAPSIS":"548.413","OBJECT_ID":"2021-038AS","LAUNCH_DATE":"2021-05-04","BSTAR":"0.00003901600000","PERIAPSIS":"546.004","MEAN_ELEMENT_THEORY":"SGP4","ECCENTRICITY":"0.00017390","ARG_OF_PERICENTER":"57.9692","INCLINATION":"53.0550","TLE_LINE1":"1 48393U 21038AS  22155.92081633  .00000300  00000-0  39016-4 0  9994","SEMIMAJOR_AXIS":"6925.344","CENTER_NAME":"EARTH","DECAY_DATE":null,"EPOCH":"2022-06-04T22:05:58.530912"},{"RCS_SIZE":"LARGE","SITE":"AFETR","RA_OF_ASC_NODE":"28.7315","TLE_LINE2":"2 48394  53.0567  28.7315 0001843  53.9614 306.1546 15.06401673 61461","OBJECT_TYPE":"PAYLOAD","FILE":"3481313","COUNTRY_CODE":"US","MEAN_MOTION":"15.06401673","PERIOD":"95.592","MEAN_MOTION_DDOT":"0.0000000000000","OBJECT_NAME":"STARLINK-2573","ELEMENT_SET_NO":"999","REV_AT_EPOCH":"6146","TIME_SYSTEM":"UTC","NORAD_CAT_ID":"48394","MEAN_MOTION_DOT":"-0.00000547","EPHEMERIS_TYPE":"0","REF_FRAME":"TEME","GP_ID":"205385898","CLASSIFICATION_TYPE":"U","MEAN_ANOMALY":"306.1546","APOAPSIS":"548.485","OBJECT_ID":"2021-038AT","BSTAR":"-0.00001782800000","LAUNCH_DATE":"2021-05-04","PERIAPSIS":"545.932","MEAN_ELEMENT_THEORY":"SGP4","ARG_OF_PERICENTER":"53.9614","INCLINATION":"53.0567","ECCENTRICITY":"0.00018430","TLE_LINE1":"1 48394U 21038AT  22155.91713011 -.00000547  00000-0 -17828-4 0  9998","CENTER_NAME":"EARTH","SEMIMAJOR_AXIS":"6925.343","EPOCH":"2022-06-04T22:00:40.041504","DECAY_DATE":null}];
